[{"OBJECT_NAME":"HAWK-11B","OBJECT_ID":"2024-247C","EPOCH":"2026-03-09T10:44:06.809856","MEAN_MOTION":15.2884707,"ECCENTRICITY":0.00046902,"INCLINATION":45.0161,"RA_OF_ASC_NODE":115.761,"ARG_OF_PERICENTER":333.0326,"MEAN_ANOMALY":27.0314,"EPHEMERIS_TYPE":0,"CLASSIFICATION_TYPE":"U","NORAD_CAT_ID":62379,"ELEMENT_SET_NO":999,"REV_AT_EPOCH":6773,"BSTAR":0.00032841927,"MEAN_MOTION_DOT":9.093e-5,"MEAN_MOTION_DDOT":0},{"OBJECT_NAME":"STARLINK-35929","OBJECT_ID":"2025-271J","EPOCH":"2026-03-09T12:25:18.362496","MEAN_MOTION":15.30143185,"ECCENTRICITY":0.00016389,"INCLINATION":53.1596,"RA_OF_ASC_NODE":140.4994,"ARG_OF_PERICENTER":48.6022,"MEAN_ANOMALY":311.512,"EPHEMERIS_TYPE":0,"CLASSIFICATION_TYPE":"U","NORAD_CAT_ID":66625,"ELEMENT_SET_NO":999,"REV_AT_EPOCH":1754,"BSTAR":0.00085400054,"MEAN_MOTION_DOT":0.00024975,"MEAN_MOTION_DDOT":0}]
