HAWK-11B                
1 62379U 24247C   26068.44730104  .00009093  00000+0  32842-3 0  9993
2 62379  45.0161 115.7610 0004690 333.0326  27.0314 15.28847070 67738
STARLINK-35929          
1 66625U 25271J   26068.51757364  .00024975  00000+0  85400-3 0  9998
2 66625  53.1596 140.4994 0001638  48.6022 311.5120 15.30143185 17548
